ONEWEB-0644             
1 55808U 23029N   26012.28999973  .00000084  00000+0  17776-3 0  9991
2 55808  87.9216 336.0126 0001418  76.5033 283.6258 13.19724315138349
ONEWEB-0645             
1 55809U 23029P   26012.31212534  .00000096  00000+0  20704-3 0  9995
2 55809  87.9214 336.0011 0001617  62.3537 297.7760 13.19726605138342
ONEWEB-0646             
1 55810U 23029Q   26012.25368198  .00000098  00000+0  21156-3 0  9992
2 55810  87.9227 336.0075 0001486  77.0280 283.1019 13.19726828138321
ONEWEB-0648             
1 55811U 23029R   26012.29927858  .00000284  00000+0  73167-3 0  9997
2 55811  87.9022 320.7679 0001494  43.9535 316.1713 13.14503641138913
ONEWEB-0649             
1 55812U 23029S   26012.27895208  .00000003  00000+0 -24364-4 0  9995
2 55812  87.9226 335.9991 0001534  67.8405 292.2891 13.19725034138368
ONEWEB-0650             
1 55813U 23029T   26012.27421487  .00000020  00000+0  16970-4 0  9992
2 55813  87.9224 336.0046 0001367  69.8694 290.2586 13.19726363138338
ONEWEB-0652             
1 55814U 23029U   26012.28025479 -.00000001  00000+0 -36403-4 0  9999
2 55814  87.9014 320.7908 0001830  82.8494 277.2844 13.14503096138884
ONEWEB-0653             
1 55815U 23029V   26012.26439457 -.00000173  00000+0 -50024-3 0  9997
2 55815  87.9016 320.7835 0001907  77.3862 282.7481 13.14503270138915
ONEWEB-0654             
1 55816U 23029W   26012.25963602 -.00000187  00000+0 -53791-3 0  9990
2 55816  87.9018 320.7841 0002065  84.4070 275.7296 13.14502884138939
ONEWEB-0656             
1 55817U 23029X   26012.29662199  .00000077  00000+0  15841-3 0  9992
2 55817  87.9232 305.5256 0002087  83.8159 276.3212 13.20771810140576
ONEWEB-0657             
1 55818U 23029Y   26012.26943646  .00003568  00000+0  88733-2 0  9996
2 55818  87.9217 336.0061 0001967 107.4048 252.7300 13.19753370138346
ONEWEB-0658             
1 55819U 23029Z   26012.26473253 -.00000005  00000+0 -44601-4 0  9992
2 55819  87.9235 335.9660 0001336  74.2565 285.8715 13.19724900138350
ONEWEB-0660             
1 55820U 23029AA  26012.23743987  .00000158  00000+0  39062-3 0  9996
2 55820  87.9026 320.7698 0001782  67.9654 292.1665 13.14502216138912
ONEWEB-0661             
1 55821U 23029AB  26012.27232837 -.00000104  00000+0 -31619-3 0  9991
2 55821  87.9012 320.8256 0001881  70.0390 290.0942 13.14502674138903
ONEWEB-0662             
1 55822U 23029AC  26012.30720827  .00000307  00000+0  79270-3 0  9995
2 55822  87.9017 320.8252 0001754  67.5017 292.6298 13.14504146138954
ONEWEB-0663             
1 55823U 23029AD  26012.26572355  .00000062  00000+0  11975-3 0  9998
2 55823  87.9240 305.6005 0001603  61.6768 298.4527 13.20856686140566
