[{"OBJECT_NAME":"ONEWEB-0644","OBJECT_ID":"2023-029N","EPOCH":"2026-01-12T06:57:35.976672","MEAN_MOTION":13.19724315,"ECCENTRICITY":0.00014189,"INCLINATION":87.9216,"RA_OF_ASC_NODE":336.0126,"ARG_OF_PERICENTER":76.5033,"MEAN_ANOMALY":283.6258,"EPHEMERIS_TYPE":0,"CLASSIFICATION_TYPE":"U","NORAD_CAT_ID":55808,"ELEMENT_SET_NO":999,"REV_AT_EPOCH":13834,"BSTAR":0.0001777555,"MEAN_MOTION_DOT":8.4e-7,"MEAN_MOTION_DDOT":0},{"OBJECT_NAME":"ONEWEB-0645","OBJECT_ID":"2023-029P","EPOCH":"2026-01-12T07:29:27.629376","MEAN_MOTION":13.19726605,"ECCENTRICITY":0.00016173,"INCLINATION":87.9214,"RA_OF_ASC_NODE":336.0011,"ARG_OF_PERICENTER":62.3537,"MEAN_ANOMALY":297.776,"EPHEMERIS_TYPE":0,"CLASSIFICATION_TYPE":"U","NORAD_CAT_ID":55809,"ELEMENT_SET_NO":999,"REV_AT_EPOCH":13834,"BSTAR":0.00020703887,"MEAN_MOTION_DOT":9.6e-7,"MEAN_MOTION_DDOT":0},{"OBJECT_NAME":"ONEWEB-0646","OBJECT_ID":"2023-029Q","EPOCH":"2026-01-12T06:05:18.123072","MEAN_MOTION":13.19726828,"ECCENTRICITY":0.00014865,"INCLINATION":87.9227,"RA_OF_ASC_NODE":336.0075,"ARG_OF_PERICENTER":77.028,"MEAN_ANOMALY":283.1019,"EPHEMERIS_TYPE":0,"CLASSIFICATION_TYPE":"U","NORAD_CAT_ID":55810,"ELEMENT_SET_NO":999,"REV_AT_EPOCH":13832,"BSTAR":0.00021156429,"MEAN_MOTION_DOT":9.8e-7,"MEAN_MOTION_DDOT":0},{"OBJECT_NAME":"ONEWEB-0648","OBJECT_ID":"2023-029R","EPOCH":"2026-01-12T07:10:57.669312","MEAN_MOTION":13.14503641,"ECCENTRICITY":0.00014949,"INCLINATION":87.9022,"RA_OF_ASC_NODE":320.7679,"ARG_OF_PERICENTER":43.9535,"MEAN_ANOMALY":316.1713,"EPHEMERIS_TYPE":0,"CLASSIFICATION_TYPE":"U","NORAD_CAT_ID":55811,"ELEMENT_SET_NO":999,"REV_AT_EPOCH":13891,"BSTAR":0.00073167116,"MEAN_MOTION_DOT":2.84e-6,"MEAN_MOTION_DDOT":0},{"OBJECT_NAME":"ONEWEB-0649","OBJECT_ID":"2023-029S","EPOCH":"2026-01-12T06:41:41.459712","MEAN_MOTION":13.19725034,"ECCENTRICITY":0.00015344,"INCLINATION":87.9226,"RA_OF_ASC_NODE":335.9991,"ARG_OF_PERICENTER":67.8405,"MEAN_ANOMALY":292.2891,"EPHEMERIS_TYPE":0,"CLASSIFICATION_TYPE":"U","NORAD_CAT_ID":55812,"ELEMENT_SET_NO":999,"REV_AT_EPOCH":13836,"BSTAR":-2.4364048e-5,"MEAN_MOTION_DOT":3.0e-8,"MEAN_MOTION_DDOT":0},{"OBJECT_NAME":"ONEWEB-0650","OBJECT_ID":"2023-029T","EPOCH":"2026-01-12T06:34:52.164768","MEAN_MOTION":13.19726363,"ECCENTRICITY":0.00013673,"INCLINATION":87.9224,"RA_OF_ASC_NODE":336.0046,"ARG_OF_PERICENTER":69.8694,"MEAN_ANOMALY":290.2586,"EPHEMERIS_TYPE":0,"CLASSIFICATION_TYPE":"U","NORAD_CAT_ID":55813,"ELEMENT_SET_NO":999,"REV_AT_EPOCH":13833,"BSTAR":1.6969951e-5,"MEAN_MOTION_DOT":2.0e-7,"MEAN_MOTION_DDOT":0},{"OBJECT_NAME":"ONEWEB-0652","OBJECT_ID":"2023-029U","EPOCH":"2026-01-12T06:43:34.013856","MEAN_MOTION":13.14503096,"ECCENTRICITY":0.00018307,"INCLINATION":87.9014,"RA_OF_ASC_NODE":320.7908,"ARG_OF_PERICENTER":82.8494,"MEAN_ANOMALY":277.2844,"EPHEMERIS_TYPE":0,"CLASSIFICATION_TYPE":"U","NORAD_CAT_ID":55814,"ELEMENT_SET_NO":999,"REV_AT_EPOCH":13888,"BSTAR":-3.6403103e-5,"MEAN_MOTION_DOT":-1.0e-8,"MEAN_MOTION_DDOT":0},{"OBJECT_NAME":"ONEWEB-0653","OBJECT_ID":"2023-029V","EPOCH":"2026-01-12T06:20:43.690848","MEAN_MOTION":13.1450327,"ECCENTRICITY":0.0001907,"INCLINATION":87.9016,"RA_OF_ASC_NODE":320.7835,"ARG_OF_PERICENTER":77.3862,"MEAN_ANOMALY":282.7481,"EPHEMERIS_TYPE":0,"CLASSIFICATION_TYPE":"U","NORAD_CAT_ID":55815,"ELEMENT_SET_NO":999,"REV_AT_EPOCH":13891,"BSTAR":-0.00050023882,"MEAN_MOTION_DOT":-1.73e-6,"MEAN_MOTION_DDOT":0},{"OBJECT_NAME":"ONEWEB-0654","OBJECT_ID":"2023-029W","EPOCH":"2026-01-12T06:13:52.552128","MEAN_MOTION":13.14502884,"ECCENTRICITY":0.00020652,"INCLINATION":87.9018,"RA_OF_ASC_NODE":320.7841,"ARG_OF_PERICENTER":84.407,"MEAN_ANOMALY":275.7296,"EPHEMERIS_TYPE":0,"CLASSIFICATION_TYPE":"U","NORAD_CAT_ID":55816,"ELEMENT_SET_NO":999,"REV_AT_EPOCH":13893,"BSTAR":-0.00053790753,"MEAN_MOTION_DOT":-1.87e-6,"MEAN_MOTION_DDOT":0},{"OBJECT_NAME":"ONEWEB-0656","OBJECT_ID":"2023-029X","EPOCH":"2026-01-12T07:07:08.139936","MEAN_MOTION":13.2077181,"ECCENTRICITY":0.00020873,"INCLINATION":87.9232,"RA_OF_ASC_NODE":305.5256,"ARG_OF_PERICENTER":83.8159,"MEAN_ANOMALY":276.3212,"EPHEMERIS_TYPE":0,"CLASSIFICATION_TYPE":"U","NORAD_CAT_ID":55817,"ELEMENT_SET_NO":999,"REV_AT_EPOCH":14057,"BSTAR":0.00015841247,"MEAN_MOTION_DOT":7.7e-7,"MEAN_MOTION_DDOT":0},{"OBJECT_NAME":"ONEWEB-0657","OBJECT_ID":"2023-029Y","EPOCH":"2026-01-12T06:27:59.310144","MEAN_MOTION":13.1975337,"ECCENTRICITY":0.00019671,"INCLINATION":87.9217,"RA_OF_ASC_NODE":336.0061,"ARG_OF_PERICENTER":107.4048,"MEAN_ANOMALY":252.73,"EPHEMERIS_TYPE":0,"CLASSIFICATION_TYPE":"U","NORAD_CAT_ID":55818,"ELEMENT_SET_NO":999,"REV_AT_EPOCH":13834,"BSTAR":0.0088732735,"MEAN_MOTION_DOT":3.568e-5,"MEAN_MOTION_DDOT":0},{"OBJECT_NAME":"ONEWEB-0658","OBJECT_ID":"2023-029Z","EPOCH":"2026-01-12T06:21:12.890592","MEAN_MOTION":13.197249,"ECCENTRICITY":0.00013367,"INCLINATION":87.9235,"RA_OF_ASC_NODE":335.966,"ARG_OF_PERICENTER":74.2565,"MEAN_ANOMALY":285.8715,"EPHEMERIS_TYPE":0,"CLASSIFICATION_TYPE":"U","NORAD_CAT_ID":55819,"ELEMENT_SET_NO":999,"REV_AT_EPOCH":13835,"BSTAR":-4.460105e-5,"MEAN_MOTION_DOT":-5.0e-8,"MEAN_MOTION_DDOT":0},{"OBJECT_NAME":"ONEWEB-0660","OBJECT_ID":"2023-029AA","EPOCH":"2026-01-12T05:41:54.804768","MEAN_MOTION":13.14502216,"ECCENTRICITY":0.00017824,"INCLINATION":87.9026,"RA_OF_ASC_NODE":320.7698,"ARG_OF_PERICENTER":67.9654,"MEAN_ANOMALY":292.1665,"EPHEMERIS_TYPE":0,"CLASSIFICATION_TYPE":"U","NORAD_CAT_ID":55820,"ELEMENT_SET_NO":999,"REV_AT_EPOCH":13891,"BSTAR":0.00039061569,"MEAN_MOTION_DOT":1.58e-6,"MEAN_MOTION_DDOT":0},{"OBJECT_NAME":"ONEWEB-0661","OBJECT_ID":"2023-029AB","EPOCH":"2026-01-12T06:32:09.171168","MEAN_MOTION":13.14502674,"ECCENTRICITY":0.0001881,"INCLINATION":87.9012,"RA_OF_ASC_NODE":320.8256,"ARG_OF_PERICENTER":70.039,"MEAN_ANOMALY":290.0942,"EPHEMERIS_TYPE":0,"CLASSIFICATION_TYPE":"U","NORAD_CAT_ID":55821,"ELEMENT_SET_NO":999,"REV_AT_EPOCH":13890,"BSTAR":-0.00031619455,"MEAN_MOTION_DOT":-1.04e-6,"MEAN_MOTION_DDOT":0},{"OBJECT_NAME":"ONEWEB-0662","OBJECT_ID":"2023-029AC","EPOCH":"2026-01-12T07:22:22.794528","MEAN_MOTION":13.14504146,"ECCENTRICITY":0.00017544,"INCLINATION":87.9017,"RA_OF_ASC_NODE":320.8252,"ARG_OF_PERICENTER":67.5017,"MEAN_ANOMALY":292.6298,"EPHEMERIS_TYPE":0,"CLASSIFICATION_TYPE":"U","NORAD_CAT_ID":55822,"ELEMENT_SET_NO":999,"REV_AT_EPOCH":13895,"BSTAR":0.00079270089,"MEAN_MOTION_DOT":3.07e-6,"MEAN_MOTION_DDOT":0},{"OBJECT_NAME":"ONEWEB-0663","OBJECT_ID":"2023-029AD","EPOCH":"2026-01-12T06:22:38.514720","MEAN_MOTION":13.20856686,"ECCENTRICITY":0.00016033,"INCLINATION":87.924,"RA_OF_ASC_NODE":305.6005,"ARG_OF_PERICENTER":61.6768,"MEAN_ANOMALY":298.4527,"EPHEMERIS_TYPE":0,"CLASSIFICATION_TYPE":"U","NORAD_CAT_ID":55823,"ELEMENT_SET_NO":999,"REV_AT_EPOCH":14056,"BSTAR":0.00011974872,"MEAN_MOTION_DOT":6.2e-7,"MEAN_MOTION_DDOT":0}]
